{
  "type": "FeatureCollection",
  "features": [
    {
      "type": "Feature",
      "properties": {
        "norad_id": 66536,
        "name": "STARLINK-35640",
        "group": "last-30-days",
        "lat": -31.364327467391544,
        "lon": -115.41887960320567,
        "alt_km": 416.339857121925,
        "timestamp": "2025-12-17T21:39:44.490184+00:00",
        "meta_object_name": "STARLINK-35640",
        "meta_object_id": "2025-265W",
        "meta_epoch": "2025-12-16T12:12:48.773376",
        "meta_mean_motion": 15.50602173,
        "meta_eccentricity": 0.00017718,
        "meta_inclination": 43.0004,
        "meta_ra_of_asc_node": 31.8836,
        "meta_arg_of_pericenter": 262.7593,
        "meta_mean_anomaly": 97.3066,
        "meta_ephemeris_type": 0,
        "meta_classification_type": "U",
        "meta_norad_cat_id": 66536,
        "meta_element_set_no": 999,
        "meta_rev_at_epoch": 434,
        "meta_bstar": 0.0011261208,
        "meta_mean_motion_dot": 0.0006634,
        "meta_mean_motion_ddot": 0,
        "tle_line1": "1 66536U 25265W   25350.50889784  .00066340  00000+0  11261-2 0  9991",
        "tle_line2": "2 66536  43.0004  31.8836 0001771 262.7593  97.3066 15.50602173  4340"
      },
      "geometry": {
        "type": "Point",
        "coordinates": [
          -115.41887960320567,
          -31.364327467391544
        ]
      }
    },
    {
      "type": "Feature",
      "properties": {
        "norad_id": 66537,
        "name": "STARLINK-35582",
        "group": "last-30-days",
        "lat": -32.07635088262793,
        "lon": -114.01065482160166,
        "alt_km": 416.8216837966811,
        "timestamp": "2025-12-17T21:39:44.490194+00:00",
        "meta_object_name": "STARLINK-35582",
        "meta_object_id": "2025-265X",
        "meta_epoch": "2025-12-17T09:50:55.773600",
        "meta_mean_motion": 15.50588967,
        "meta_eccentricity": 0.0001772,
        "meta_inclination": 43.0012,
        "meta_ra_of_asc_node": 26.6066,
        "meta_arg_of_pericenter": 277.8063,
        "meta_mean_anomaly": 82.2596,
        "meta_ephemeris_type": 0,
        "meta_classification_type": "U",
        "meta_norad_cat_id": 66537,
        "meta_element_set_no": 999,
        "meta_rev_at_epoch": 448,
        "meta_bstar": 0.0014380224,
        "meta_mean_motion_dot": 0.00084972,
        "meta_mean_motion_ddot": 0,
        "tle_line1": "1 66537U 25265X   25351.41036775  .00084972  00000+0  14380-2 0  9993",
        "tle_line2": "2 66537  43.0012  26.6066 0001772 277.8063  82.2596 15.50588967  4487"
      },
      "geometry": {
        "type": "Point",
        "coordinates": [
          -114.01065482160166,
          -32.07635088262793
        ]
      }
    },
    {
      "type": "Feature",
      "properties": {
        "norad_id": 66538,
        "name": "STARLINK-35577",
        "group": "last-30-days",
        "lat": -33.03629342248614,
        "lon": -112.02277833108573,
        "alt_km": 416.8520876119228,
        "timestamp": "2025-12-17T21:39:44.490205+00:00",
        "meta_object_name": "STARLINK-35577",
        "meta_object_id": "2025-265Y",
        "meta_epoch": "2025-12-17T09:50:26.132352",
        "meta_mean_motion": 15.50591082,
        "meta_eccentricity": 0.00013928,
        "meta_inclination": 43.001,
        "meta_ra_of_asc_node": 26.6049,
        "meta_arg_of_pericenter": 263.8064,
        "meta_mean_anomaly": 96.2638,
        "meta_ephemeris_type": 0,
        "meta_classification_type": "U",
        "meta_norad_cat_id": 66538,
        "meta_element_set_no": 999,
        "meta_rev_at_epoch": 448,
        "meta_bstar": 0.0015140009,
        "meta_mean_motion_dot": 0.00089538,
        "meta_mean_motion_ddot": 0,
        "tle_line1": "1 66538U 25265Y   25351.41002468  .00089538  00000+0  15140-2 0  9994",
        "tle_line2": "2 66538  43.0010  26.6049 0001392 263.8064  96.2638 15.50591082  4485"
      },
      "geometry": {
        "type": "Point",
        "coordinates": [
          -112.02277833108573,
          -33.03629342248614
        ]
      }
    },
    {
      "type": "Feature",
      "properties": {
        "norad_id": 66539,
        "name": "STARLINK-35697",
        "group": "last-30-days",
        "lat": -33.94213089933177,
        "lon": -110.04074766243342,
        "alt_km": 416.7878161490007,
        "timestamp": "2025-12-17T21:39:44.490229+00:00",
        "meta_object_name": "STARLINK-35697",
        "meta_object_id": "2025-265Z",
        "meta_epoch": "2025-12-17T11:22:41.200608",
        "meta_mean_motion": 15.50576211,
        "meta_eccentricity": 0.00020261,
        "meta_inclination": 42.9996,
        "meta_ra_of_asc_node": 26.2239,
        "meta_arg_of_pericenter": 273.6724,
        "meta_mean_anomaly": 86.3905,
        "meta_ephemeris_type": 0,
        "meta_classification_type": "U",
        "meta_norad_cat_id": 66539,
        "meta_element_set_no": 999,
        "meta_rev_at_epoch": 449,
        "meta_bstar": 0.0011358141,
        "meta_mean_motion_dot": 0.00066857,
        "meta_mean_motion_ddot": 0,
        "tle_line1": "1 66539U 25265Z   25351.47408797  .00066857  00000+0  11358-2 0  9992",
        "tle_line2": "2 66539  42.9996  26.2239 0002026 273.6724  86.3905 15.50576211  4496"
      },
      "geometry": {
        "type": "Point",
        "coordinates": [
          -110.04074766243342,
          -33.94213089933177
        ]
      }
    },
    {
      "type": "Feature",
      "properties": {
        "norad_id": 66540,
        "name": "STARLINK-35818",
        "group": "last-30-days",
        "lat": -34.79467286099487,
        "lon": -108.0696043831491,
        "alt_km": 416.8218210607365,
        "timestamp": "2025-12-17T21:39:44.490240+00:00",
        "meta_object_name": "STARLINK-35818",
        "meta_object_id": "2025-265AA",
        "meta_epoch": "2025-12-17T09:49:26.873184",
        "meta_mean_motion": 15.50570113,
        "meta_eccentricity": 0.0002163,
        "meta_inclination": 43.0002,
        "meta_ra_of_asc_node": 26.5974,
        "meta_arg_of_pericenter": 273.8138,
        "meta_mean_anomaly": 86.2475,
        "meta_ephemeris_type": 0,
        "meta_classification_type": "U",
        "meta_norad_cat_id": 66540,
        "meta_element_set_no": 999,
        "meta_rev_at_epoch": 448,
        "meta_bstar": 0.00063150289,
        "meta_mean_motion_dot": 0.0003687,
        "meta_mean_motion_ddot": 0,
        "tle_line1": "1 66540U 25265AA  25351.40933881  .00036870  00000+0  63150-3 0  9994",
        "tle_line2": "2 66540  43.0002  26.5974 0002163 273.8138  86.2475 15.50570113  4485"
      },
      "geometry": {
        "type": "Point",
        "coordinates": [
          -108.0696043831491,
          -34.79467286099487
        ]
      }
    },
    {
      "type": "Feature",
      "properties": {
        "norad_id": 66541,
        "name": "STARLINK-35796",
        "group": "last-30-days",
        "lat": 42.9446588123667,
        "lon": 116.95265707028474,
        "alt_km": 437.9727014449818,
        "timestamp": "2025-12-17T21:39:44.490249+00:00",
        "meta_object_name": "STARLINK-35796",
        "meta_object_id": "2025-265AB",
        "meta_epoch": "2025-12-17T14:00:03.000384",
        "meta_mean_motion": 15.40652539,
        "meta_eccentricity": 0.00011529,
        "meta_inclination": 43.0012,
        "meta_ra_of_asc_node": 25.9064,
        "meta_arg_of_pericenter": 276.6919,
        "meta_mean_anomaly": 202.7177,
        "meta_ephemeris_type": 0,
        "meta_classification_type": "U",
        "meta_norad_cat_id": 66541,
        "meta_element_set_no": 999,
        "meta_rev_at_epoch": 577,
        "meta_bstar": 0.0021029511,
        "meta_mean_motion_dot": 0.00088426,
        "meta_mean_motion_ddot": 0,
        "tle_line1": "1 66541U 25265AB  25351.58336806  .00088426  00000+0  21030-2 0  9992",
        "tle_line2": "2 66541  43.0012  25.9064 0001152 276.6919 202.7177 15.40652539  5774"
      },
      "geometry": {
        "type": "Point",
        "coordinates": [
          116.95265707028474,
          42.9446588123667
        ]
      }
    },
    {
      "type": "Feature",
      "properties": {
        "norad_id": 66542,
        "name": "STARLINK-35833",
        "group": "last-30-days",
        "lat": 24.862798477281274,
        "lon": 174.1265469159217,
        "alt_km": 440.69669427480585,
        "timestamp": "2025-12-17T21:39:44.490259+00:00",
        "meta_object_name": "STARLINK-35833",
        "meta_object_id": "2025-265AC",
        "meta_epoch": "2025-12-17T14:00:03.000384",
        "meta_mean_motion": 15.40649895,
        "meta_eccentricity": 0.00011092,
        "meta_inclination": 43.0009,
        "meta_ra_of_asc_node": 25.7859,
        "meta_arg_of_pericenter": 283.8815,
        "meta_mean_anomaly": 245.2908,
        "meta_ephemeris_type": 0,
        "meta_classification_type": "U",
        "meta_norad_cat_id": 66542,
        "meta_element_set_no": 999,
        "meta_rev_at_epoch": 577,
        "meta_bstar": 0.002024187,
        "meta_mean_motion_dot": 0.00085057,
        "meta_mean_motion_ddot": 0,
        "tle_line1": "1 66542U 25265AC  25351.58336806  .00085057  00000+0  20242-2 0  9994",
        "tle_line2": "2 66542  43.0009  25.7859 0001109 283.8815 245.2908 15.40649895  5773"
      },
      "geometry": {
        "type": "Point",
        "coordinates": [
          174.1265469159217,
          24.862798477281274
        ]
      }
    }
  ]
}